[{"OBJECT_NAME":"GLOBALSTAR M073","OBJECT_ID":"2010-054F","EPOCH":"2026-03-05T08:03:36.884448","MEAN_MOTION":12.62269695,"ECCENTRICITY":5.21e-5,"INCLINATION":52.0083,"RA_OF_ASC_NODE":20.4155,"ARG_OF_PERICENTER":101.8693,"MEAN_ANOMALY":63.4982,"EPHEMERIS_TYPE":0,"CLASSIFICATION_TYPE":"U","NORAD_CAT_ID":37193,"ELEMENT_SET_NO":999,"REV_AT_EPOCH":71081,"BSTAR":-1.8392e-5,"MEAN_MOTION_DOT":-1.07e-6,"MEAN_MOTION_DDOT":0},{"OBJECT_NAME":"GLOBALSTAR M083","OBJECT_ID":"2011-033A","EPOCH":"2026-03-05T02:31:54.494112","MEAN_MOTION":12.62267441,"ECCENTRICITY":7.649e-5,"INCLINATION":51.9881,"RA_OF_ASC_NODE":329.491,"ARG_OF_PERICENTER":90.7181,"MEAN_ANOMALY":48.9959,"EPHEMERIS_TYPE":0,"CLASSIFICATION_TYPE":"U","NORAD_CAT_ID":37739,"ELEMENT_SET_NO":999,"REV_AT_EPOCH":67980,"BSTAR":0.00016876651,"MEAN_MOTION_DOT":-7.4e-7,"MEAN_MOTION_DDOT":0},{"OBJECT_NAME":"GLOBALSTAR M088","OBJECT_ID":"2011-033B","EPOCH":"2026-03-05T14:52:19.836192","MEAN_MOTION":12.62262133,"ECCENTRICITY":8.43e-5,"INCLINATION":52.0194,"RA_OF_ASC_NODE":234.1007,"ARG_OF_PERICENTER":94.7463,"MEAN_ANOMALY":341.4676,"EPHEMERIS_TYPE":0,"CLASSIFICATION_TYPE":"U","NORAD_CAT_ID":37740,"ELEMENT_SET_NO":999,"REV_AT_EPOCH":67541,"BSTAR":-3.117e-5,"MEAN_MOTION_DOT":-1.09e-6,"MEAN_MOTION_DDOT":0},{"OBJECT_NAME":"GLOBALSTAR M091","OBJECT_ID":"2011-033C","EPOCH":"2026-03-05T13:18:30.538368","MEAN_MOTION":12.62270228,"ECCENTRICITY":9.06e-5,"INCLINATION":51.9984,"RA_OF_ASC_NODE":197.4169,"ARG_OF_PERICENTER":99.5644,"MEAN_ANOMALY":340.581,"EPHEMERIS_TYPE":0,"CLASSIFICATION_TYPE":"U","NORAD_CAT_ID":37741,"ELEMENT_SET_NO":999,"REV_AT_EPOCH":67619,"BSTAR":2.4307e-5,"MEAN_MOTION_DOT":-9.9e-7,"MEAN_MOTION_DDOT":0},{"OBJECT_NAME":"GLOBALSTAR M085","OBJECT_ID":"2011-033D","EPOCH":"2026-03-05T15:20:19.256064","MEAN_MOTION":12.62269465,"ECCENTRICITY":8.32e-5,"INCLINATION":52.0119,"RA_OF_ASC_NODE":148.3613,"ARG_OF_PERICENTER":106.5581,"MEAN_ANOMALY":58.5023,"EPHEMERIS_TYPE":0,"CLASSIFICATION_TYPE":"U","NORAD_CAT_ID":37742,"ELEMENT_SET_NO":999,"REV_AT_EPOCH":67671,"BSTAR":0.00018802,"MEAN_MOTION_DOT":-7.0e-7,"MEAN_MOTION_DDOT":0},{"OBJECT_NAME":"GLOBALSTAR M081","OBJECT_ID":"2011-033E","EPOCH":"2026-03-05T13:46:18.189696","MEAN_MOTION":12.6226263,"ECCENTRICITY":7.47e-5,"INCLINATION":51.9951,"RA_OF_ASC_NODE":151.1137,"ARG_OF_PERICENTER":122.5585,"MEAN_ANOMALY":345.7349,"EPHEMERIS_TYPE":0,"CLASSIFICATION_TYPE":"U","NORAD_CAT_ID":37743,"ELEMENT_SET_NO":999,"REV_AT_EPOCH":67685,"BSTAR":0.00014686,"MEAN_MOTION_DOT":-7.7e-7,"MEAN_MOTION_DDOT":0},{"OBJECT_NAME":"GLOBALSTAR M089","OBJECT_ID":"2011-033F","EPOCH":"2026-03-05T13:05:30.539040","MEAN_MOTION":12.62264619,"ECCENTRICITY":3.16e-5,"INCLINATION":51.9921,"RA_OF_ASC_NODE":105.3792,"ARG_OF_PERICENTER":159.5748,"MEAN_ANOMALY":359.9411,"EPHEMERIS_TYPE":0,"CLASSIFICATION_TYPE":"U","NORAD_CAT_ID":37744,"ELEMENT_SET_NO":999,"REV_AT_EPOCH":67769,"BSTAR":0.00016089,"MEAN_MOTION_DOT":-7.5e-7,"MEAN_MOTION_DDOT":0},{"OBJECT_NAME":"GLOBALSTAR M084","OBJECT_ID":"2011-080A","EPOCH":"2026-03-05T18:27:07.087392","MEAN_MOTION":12.62265355,"ECCENTRICITY":3.96e-5,"INCLINATION":52.0034,"RA_OF_ASC_NODE":332.1267,"ARG_OF_PERICENTER":87.4844,"MEAN_ANOMALY":307.2656,"EPHEMERIS_TYPE":0,"CLASSIFICATION_TYPE":"U","NORAD_CAT_ID":38040,"ELEMENT_SET_NO":999,"REV_AT_EPOCH":65570,"BSTAR":0.00016918,"MEAN_MOTION_DOT":-7.3e-7,"MEAN_MOTION_DDOT":0},{"OBJECT_NAME":"GLOBALSTAR M080","OBJECT_ID":"2011-080B","EPOCH":"2026-03-05T05:09:16.891776","MEAN_MOTION":12.62266902,"ECCENTRICITY":0.00010028,"INCLINATION":52.0085,"RA_OF_ASC_NODE":335.4962,"ARG_OF_PERICENTER":59.3017,"MEAN_ANOMALY":105.9822,"EPHEMERIS_TYPE":0,"CLASSIFICATION_TYPE":"U","NORAD_CAT_ID":38041,"ELEMENT_SET_NO":999,"REV_AT_EPOCH":65575,"BSTAR":0.00015427545,"MEAN_MOTION_DOT":-7.6e-7,"MEAN_MOTION_DDOT":0},{"OBJECT_NAME":"GLOBALSTAR M082","OBJECT_ID":"2011-080C","EPOCH":"2026-03-05T18:21:05.088672","MEAN_MOTION":12.62268105,"ECCENTRICITY":0.0001106,"INCLINATION":52.0072,"RA_OF_ASC_NODE":289.3136,"ARG_OF_PERICENTER":73.1072,"MEAN_ANOMALY":1.9865,"EPHEMERIS_TYPE":0,"CLASSIFICATION_TYPE":"U","NORAD_CAT_ID":38042,"ELEMENT_SET_NO":999,"REV_AT_EPOCH":65653,"BSTAR":0.00016679,"MEAN_MOTION_DOT":-7.4e-7,"MEAN_MOTION_DDOT":0},{"OBJECT_NAME":"GLOBALSTAR M092","OBJECT_ID":"2011-080D","EPOCH":"2026-03-05T14:25:23.510784","MEAN_MOTION":12.62264317,"ECCENTRICITY":3.9e-5,"INCLINATION":52.0108,"RA_OF_ASC_NODE":20.1979,"ARG_OF_PERICENTER":77.2855,"MEAN_ANOMALY":93.7036,"EPHEMERIS_TYPE":0,"CLASSIFICATION_TYPE":"U","NORAD_CAT_ID":38043,"ELEMENT_SET_NO":999,"REV_AT_EPOCH":65496,"BSTAR":5.8635e-5,"MEAN_MOTION_DOT":-9.3e-7,"MEAN_MOTION_DDOT":0},{"OBJECT_NAME":"GLOBALSTAR M090","OBJECT_ID":"2011-080E","EPOCH":"2026-03-05T14:58:42.257280","MEAN_MOTION":12.62271767,"ECCENTRICITY":9.28e-5,"INCLINATION":52.0117,"RA_OF_ASC_NODE":283.6642,"ARG_OF_PERICENTER":88.3765,"MEAN_ANOMALY":306.6729,"EPHEMERIS_TYPE":0,"CLASSIFICATION_TYPE":"U","NORAD_CAT_ID":38044,"ELEMENT_SET_NO":999,"REV_AT_EPOCH":65663,"BSTAR":0.00014922,"MEAN_MOTION_DOT":-7.7e-7,"MEAN_MOTION_DDOT":0},{"OBJECT_NAME":"GLOBALSTAR M086","OBJECT_ID":"2011-080F","EPOCH":"2026-03-05T00:56:27.191904","MEAN_MOTION":12.62283479,"ECCENTRICITY":0.00012673,"INCLINATION":51.9895,"RA_OF_ASC_NODE":285.544,"ARG_OF_PERICENTER":143.1561,"MEAN_ANOMALY":7.2243,"EPHEMERIS_TYPE":0,"CLASSIFICATION_TYPE":"U","NORAD_CAT_ID":38045,"ELEMENT_SET_NO":999,"REV_AT_EPOCH":65650,"BSTAR":0.00016974414,"MEAN_MOTION_DOT":-7.3e-7,"MEAN_MOTION_DDOT":0},{"OBJECT_NAME":"GLOBALSTAR M097","OBJECT_ID":"2013-005A","EPOCH":"2026-03-05T17:56:36.801024","MEAN_MOTION":12.62284298,"ECCENTRICITY":0.0001008,"INCLINATION":52.0032,"RA_OF_ASC_NODE":198.2104,"ARG_OF_PERICENTER":112.5649,"MEAN_ANOMALY":247.5325,"EPHEMERIS_TYPE":0,"CLASSIFICATION_TYPE":"U","NORAD_CAT_ID":39072,"ELEMENT_SET_NO":999,"REV_AT_EPOCH":60384,"BSTAR":-5.6068e-5,"MEAN_MOTION_DOT":-1.14e-6,"MEAN_MOTION_DDOT":0},{"OBJECT_NAME":"GLOBALSTAR M093","OBJECT_ID":"2013-005B","EPOCH":"2026-03-05T17:19:02.089344","MEAN_MOTION":12.62273271,"ECCENTRICITY":0.0001141,"INCLINATION":52.0096,"RA_OF_ASC_NODE":191.5998,"ARG_OF_PERICENTER":113.9068,"MEAN_ANOMALY":246.1918,"EPHEMERIS_TYPE":0,"CLASSIFICATION_TYPE":"U","NORAD_CAT_ID":39073,"ELEMENT_SET_NO":999,"REV_AT_EPOCH":60379,"BSTAR":6.4881e-5,"MEAN_MOTION_DOT":-9.2e-7,"MEAN_MOTION_DDOT":0},{"OBJECT_NAME":"GLOBALSTAR M094","OBJECT_ID":"2013-005C","EPOCH":"2026-03-05T11:37:12.286272","MEAN_MOTION":12.62267092,"ECCENTRICITY":6.96e-5,"INCLINATION":51.9951,"RA_OF_ASC_NODE":106.5452,"ARG_OF_PERICENTER":117.9532,"MEAN_ANOMALY":242.1405,"EPHEMERIS_TYPE":0,"CLASSIFICATION_TYPE":"U","NORAD_CAT_ID":39074,"ELEMENT_SET_NO":999,"REV_AT_EPOCH":60537,"BSTAR":0.0001321,"MEAN_MOTION_DOT":-8.0e-7,"MEAN_MOTION_DDOT":0},{"OBJECT_NAME":"GLOBALSTAR M096","OBJECT_ID":"2013-005D","EPOCH":"2026-03-05T11:56:08.373696","MEAN_MOTION":12.62263449,"ECCENTRICITY":8.46e-5,"INCLINATION":52.0068,"RA_OF_ASC_NODE":155.2233,"ARG_OF_PERICENTER":111.2254,"MEAN_ANOMALY":248.8704,"EPHEMERIS_TYPE":0,"CLASSIFICATION_TYPE":"U","NORAD_CAT_ID":39075,"ELEMENT_SET_NO":999,"REV_AT_EPOCH":60429,"BSTAR":0.00018975,"MEAN_MOTION_DOT":-7.0e-7,"MEAN_MOTION_DDOT":0}]
